ONEWEB-0102             
1 47258U 20100A   25300.68765637 -.00000549  00000+0 -15609-2 0  9999
2 47258  87.8972  36.8728 0001921  99.7404 260.3941 13.12442391234238
ONEWEB-0109             
1 47259U 20100B   25300.69576321 -.00000523  00000+0 -14897-2 0  9991
2 47259  87.8972  36.8392 0001868 101.5678 258.5660 13.12442893234066
ONEWEB-0110             
1 47260U 20100C   25300.72173281  .00000502  00000+0  13587-2 0  9995
2 47260  87.8968  36.8178 0001854 110.4534 249.6794 13.12442272234239
ONEWEB-0111             
1 47261U 20100D   25300.82877867 -.00000367  00000+0 -10560-2 0  9997
2 47261  87.8970  36.8139 0001750 101.5379 258.5946 13.12443369234082
ONEWEB-0114             
1 47262U 20100E   25300.70713390  .00000151  00000+0  38575-3 0  9991
2 47262  87.8972  36.8325 0001951  94.6072 265.5279 13.12443304234027
ONEWEB-0117             
1 47263U 20100F   25300.69900661 -.00000376  00000+0 -10806-2 0  9996
2 47263  87.8971  36.8319 0001747 103.0274 257.1049 13.12442670234030
ONEWEB-0118             
1 47264U 20100G   25300.73146250  .00000371  00000+0  99686-3 0  9995
2 47264  87.8970  36.8248 0001744  89.8424 270.2905 13.12440643234233
ONEWEB-0119             
1 47265U 20100H   25300.83526214 -.00000420  00000+0 -12025-2 0  9997
2 47265  87.8968  36.8405 0001804 102.6590 257.4740 13.12441265234225
